[{"OBJECT_NAME":"OBJECT B","OBJECT_ID":"2024-205B","EPOCH":"2026-03-09T23:46:05.115936","MEAN_MOTION":15.28158697,"ECCENTRICITY":0.00105957,"INCLINATION":97.4192,"RA_OF_ASC_NODE":146.9311,"ARG_OF_PERICENTER":34.0947,"MEAN_ANOMALY":326.0972,"EPHEMERIS_TYPE":0,"CLASSIFICATION_TYPE":"U","NORAD_CAT_ID":61895,"ELEMENT_SET_NO":999,"REV_AT_EPOCH":7352,"BSTAR":0.00054154807,"MEAN_MOTION_DOT":0.00014827,"MEAN_MOTION_DDOT":0},{"OBJECT_NAME":"STARLINK-35670","OBJECT_ID":"2025-262AA","EPOCH":"2026-03-08T16:49:15.738240","MEAN_MOTION":15.27576159,"ECCENTRICITY":0.00016234,"INCLINATION":43.0034,"RA_OF_ASC_NODE":301.8816,"ARG_OF_PERICENTER":269.8132,"MEAN_ANOMALY":90.2534,"EPHEMERIS_TYPE":0,"CLASSIFICATION_TYPE":"U","NORAD_CAT_ID":66480,"ELEMENT_SET_NO":999,"REV_AT_EPOCH":1875,"BSTAR":0.00089741974,"MEAN_MOTION_DOT":0.00024512,"MEAN_MOTION_DDOT":0}]
